NUSAT-1 (FRESCO)        
1 41557U 16033B   22123.57445196  .00018996  00000+0  58668-3 0  9994
2 41557  97.3863 221.2416 0012500 170.8223 298.7098 15.33511169330508
BEESAT-4                
1 41619U 16040W   22123.39460007  .00012645  00000+0  44025-3 0  9996
2 41619  97.2211 175.2581 0007947 274.0186  86.0147 15.29782567313835
CAS-2T & KS-1Q          
1 41847U 16066G   22123.06306658  .00000753  00000+0  12336-3 0  9999
2 41847  98.5539 187.7711 0363768 345.8308  13.2882 14.38524445287822
NAYIF-1 (EO-88)         
1 42017U 17008BX  22123.09537455  .00016158  00000+0  50719-3 0  9993
2 42017  97.2719 189.9084 0006027  64.1031 296.0832 15.33085026290127
ZHUHAI-1 02 (CAS-4B)    
1 42759U 17034B   22123.58166500  .00006842  00000+0  40859-3 0  9991
2 42759  43.0180 219.9690 0009090 357.7719  91.5067 15.11567344269561
ZHUHAI-1 01 (CAS-4A)    
1 42761U 17034D   22123.56053068  .00006873  00000+0  40933-3 0  9993
2 42761  43.0175 218.9048 0009310   0.8455 123.5005 15.11659012269564
MAX VALIER SAT          
1 42778U 17036P   22123.35827180  .00007692  00000+0  29966-3 0  9997
2 42778  97.2097 166.0216 0013016 123.0009 237.2483 15.26162321270021
RADFXSAT (FOX-1B)       
1 43017U 17073E   22123.44991077  .00005241  00000+0  39864-3 0  9998
2 43017  97.6797  19.4761 0249172 335.5715  23.3850 14.81079159240455
FOX-1D (AO-92)          
1 43137U 18004AC  22123.46083565  .00009685  00000+0  35206-3 0  9994
2 43137  97.3699 199.0485 0008912 153.8513 206.3178 15.28436026239474
DIWATA-2B               
1 43678U 18084H   22123.58675768  .00001454  00000+0  14877-3 0  9994
2 43678  97.9626 256.3477 0011260  75.9964 284.2517 14.92082751191169
ES'HAIL 2               
1 43700U 18090A   22123.52015189  .00000148  00000+0  00000+0 0  9994
2 43700   0.0304 121.4098 0002391 310.9509   2.0987  1.00275155 12577
FOX-1CLIFF (AO-95)      
1 43770U 18099N   22123.45167813  .00002619  00000+0  23695-3 0  9998
2 43770  97.6222 190.9706 0015388  70.1515 290.1364 14.96183131186284
ITASAT 1                
1 43786U 18099AE  22123.44983452  .00002224  00000+0  20104-3 0  9993
2 43786  97.6250 191.8620 0015879  62.9303 297.3537 14.96364217186328
JY1SAT (JO-97)          
1 43803U 18099AX  22123.08057051  .00003466  00000+0  30688-3 0  9997
2 43803  97.6226 191.2468 0016325  63.8882 296.4017 14.96808371186286
UWE-4                   
1 43880U 18111E   22123.31312436  .00002037  00000+0  17782-3 0  9997
2 43880  97.6719  30.4151 0013431 108.1880 252.0805 14.97866180182942
NEXUS (FO-99)           
1 43937U 19003F   22123.37290364  .00011704  00000+0  40875-3 0  9992
2 43937  97.1345 158.5026 0019320 318.1992  41.7772 15.29545998183087
PSAT2 (NO-104)          
1 44354U 19036R   22123.33013584  .00053875 -55204-5  52951-3 0  9991
2 44354  28.5252 129.7628 0251039 184.3610 175.4785 15.33744521157739
JAISAT-1                
1 44419U 19038F   22123.45027575  .00008471  00000+0  43577-3 0  9996
2 44419  97.6336  93.2466 0017456 289.7010  70.2339 15.16566798156233
DUCHIFAT-3              
1 44854U 19089C   22123.06948850  .00006005  00000+0  47029-3 0  9997
2 44854  36.9680   9.3320 0007888 225.2886 134.7198 15.00738494131111
CAS-6 (TO-108)          
1 44881U 19093C   22123.53522606  .00000945  00000+0  12658-3 0  9998
2 44881  97.8935 203.3886 0014510 337.7391  22.3194 14.81669278128129
RS-44 & BREEZE-KM R/B   
1 44909U 19096E   22123.47139141  .00000000  00000+0 -49009-4 0  9997
2 44909  82.5201 260.1554 0218251  65.0739 297.2869 12.79713143109751
ORBITAL FACTORY 2 (OF-2)
1 45113U 19071C   22123.45890726  .00024546  00000+0  55234-3 0  9995
2 45113  51.6389 280.3857 0009446   5.6363 354.4728 15.43118565126424
HUSKYSAT-1 (HO-107)     
1 45119U 19071J   22123.44161278  .00022574  00000+0  52018-3 0  9999
2 45119  51.6392 280.2487 0009225   2.7012 357.4022 15.42461994126411
BY70-2                  
1 45857U 20042B   22123.51875295  .00010671  00000+0  14436-2 0  9993
2 45857  97.9561 200.8099 0009048 254.2602 105.7612 14.79153874 98815
SALSAT                  
1 46495U 20068K   22123.33341862  .00002293  00000+0  16878-3 0  9992
2 46495  97.7260  64.6367 0018082  71.8895 288.4298 15.04268355 87409
BY70-3                  
1 46839U 20079N   22123.57445933  .00022614  00000+0  56784-3 0  9995
2 46839  97.2006 196.3154 0007769 134.6581 331.7580 15.39972161 83330
RADFXSAT-2 (AO-109)     
1 47311U 21002C   22123.55428114  .00006747  00000+0  28284-3 0  9991
2 47311  60.6841 171.1683 0011374 275.3016  84.6774 15.24494710 71618
UVSQ-SAT                
1 47438U 21006AB  22123.44563074  .00006467  00000+0  34802-3 0  9990
2 47438  97.4404 183.3888 0013445  75.5539 284.7184 15.15107295 70463
DIY-1 (ARDUIQUBE)       
1 47963U 21022AH  22123.23511014  .00013731  00000+0  80053-3 0  9996
2 47963  97.5359  25.1596 0015070 292.1214  67.8416 15.11999311 60111
XW-3 (CAS-9)            
1 50466U 21131B   22123.37716734  .00000241  00000+0  93690-4 0  9994
2 50466  98.5811 200.6506 0003224 283.3417  76.7411 14.38477121 18433
